STARLINK-35605          
1 66150U 25240E   25321.33486464  .00083108  00000+0  14858-2 0  9999
2 66150  53.1604 226.3021 0001491  68.7769 291.3399 15.49322614  4763
STARLINK-35540          
1 66151U 25240F   25321.33451803  .00079037  00000+0  14130-2 0  9998
2 66151  53.1603 226.2998 0000701  74.5704 285.5383 15.49345954  4762
STARLINK-35455          
1 66152U 25240G   25321.50003471  .00072433  00000+0  18061-2 0  9992
2 66152  53.1604 225.5965 0001589 120.3767  38.5941 15.39577436  4840
STARLINK-34752          
1 66153U 25240H   25321.33383238  .00074114  00000+0  13271-2 0  9992
2 66153  53.1603 226.2957 0001321 100.5373 259.5785 15.49328679  4762
STARLINK-34625          
1 66154U 25240J   25321.46252144  .00133172  00000+0  23548-2 0  9996
2 66154  53.1602 225.6764 0000298 189.0946 171.0058 15.49394055  4831
STARLINK-35580          
1 66155U 25240K   25321.46216262  .00129543  00000+0  22964-2 0  9996
2 66155  53.1603 225.6731 0001424  95.6136 264.5036 15.49338758  4788
STARLINK-35621          
1 66156U 25240L   25321.46182591  .00072214  00000+0  12950-2 0  9990
2 66156  53.1600 225.6706 0001331  98.0189 262.0971 15.49297116  4783
STARLINK-35594          
1 66157U 25240M   25321.46148178  .00118229  00000+0  21024-2 0  9993
2 66157  53.1600 225.6687 0001893  81.5262 278.5961 15.49300353  4783
STARLINK-35587          
1 66158U 25240N   25321.50003471 -.01175184  00000+0 -31382-1 0  9998
2 66158  53.1606 225.5367 0000943  78.3054 109.7133 15.40450739  4840
STARLINK-35586          
1 66159U 25240P   25321.46078910  .00076650  00000+0  13722-2 0  9998
2 66159  53.1601 225.6632 0001254  99.3984 260.7167 15.49319033  4781
STARLINK-35636          
1 66160U 25240Q   25321.50003471  .00060777  00000+0  15203-2 0  9994
2 66160  53.1608 225.5394 0001511  93.1250  93.5020 15.39560192  4848
STARLINK-35635          
1 66161U 25240R   25321.50003471  .00050513  00000+0  12671-2 0  9998
2 66161  53.1606 225.5900 0001407 104.1143  56.7672 15.39556579  4846
