CCSDS_OMM_VERS = 2.0
CREATION_DATE  = 
ORIGINATOR     = 

OBJECT_NAME    = STARLINK-35605
OBJECT_ID      = 2025-240E
CENTER_NAME    = EARTH
REF_FRAME      = TEME
TIME_SYSTEM    = UTC
MEAN_ELEMENT_THEORY = SGP/SGP4

EPOCH          = 2025-11-17T08:02:12.304896
MEAN_MOTION    = 15.49322614
ECCENTRICITY   = .0001491
INCLINATION    = 53.1604
RA_OF_ASC_NODE = 226.3021
ARG_OF_PERICENTER = 68.7769
MEAN_ANOMALY   = 291.3399

EPHEMERIS_TYPE = 0
CLASSIFICATION_TYPE = U
NORAD_CAT_ID   = 66150
ELEMENT_SET_NO = 999
REV_AT_EPOCH   = 476
BSTAR          = .14858E-2
MEAN_MOTION_DOT = .83108E-3
MEAN_MOTION_DDOT = 0

CCSDS_OMM_VERS = 2.0
CREATION_DATE  = 
ORIGINATOR     = 

OBJECT_NAME    = STARLINK-35540
OBJECT_ID      = 2025-240F
CENTER_NAME    = EARTH
REF_FRAME      = TEME
TIME_SYSTEM    = UTC
MEAN_ELEMENT_THEORY = SGP/SGP4

EPOCH          = 2025-11-17T08:01:42.357792
MEAN_MOTION    = 15.49345954
ECCENTRICITY   = .0000701
INCLINATION    = 53.1603
RA_OF_ASC_NODE = 226.2998
ARG_OF_PERICENTER = 74.5704
MEAN_ANOMALY   = 285.5383

EPHEMERIS_TYPE = 0
CLASSIFICATION_TYPE = U
NORAD_CAT_ID   = 66151
ELEMENT_SET_NO = 999
REV_AT_EPOCH   = 476
BSTAR          = .1413E-2
MEAN_MOTION_DOT = .79037E-3
MEAN_MOTION_DDOT = 0

CCSDS_OMM_VERS = 2.0
CREATION_DATE  = 
ORIGINATOR     = 

OBJECT_NAME    = STARLINK-35455
OBJECT_ID      = 2025-240G
CENTER_NAME    = EARTH
REF_FRAME      = TEME
TIME_SYSTEM    = UTC
MEAN_ELEMENT_THEORY = SGP/SGP4

EPOCH          = 2025-11-17T12:00:02.998944
MEAN_MOTION    = 15.39577436
ECCENTRICITY   = .0001589
INCLINATION    = 53.1604
RA_OF_ASC_NODE = 225.5965
ARG_OF_PERICENTER = 120.3767
MEAN_ANOMALY   = 38.5941

EPHEMERIS_TYPE = 0
CLASSIFICATION_TYPE = U
NORAD_CAT_ID   = 66152
ELEMENT_SET_NO = 999
REV_AT_EPOCH   = 484
BSTAR          = .18061E-2
MEAN_MOTION_DOT = .72433E-3
MEAN_MOTION_DDOT = 0

CCSDS_OMM_VERS = 2.0
CREATION_DATE  = 
ORIGINATOR     = 

OBJECT_NAME    = STARLINK-34752
OBJECT_ID      = 2025-240H
CENTER_NAME    = EARTH
REF_FRAME      = TEME
TIME_SYSTEM    = UTC
MEAN_ELEMENT_THEORY = SGP/SGP4

EPOCH          = 2025-11-17T08:00:43.117632
MEAN_MOTION    = 15.49328679
ECCENTRICITY   = .0001321
INCLINATION    = 53.1603
RA_OF_ASC_NODE = 226.2957
ARG_OF_PERICENTER = 100.5373
MEAN_ANOMALY   = 259.5785

EPHEMERIS_TYPE = 0
CLASSIFICATION_TYPE = U
NORAD_CAT_ID   = 66153
ELEMENT_SET_NO = 999
REV_AT_EPOCH   = 476
BSTAR          = .13271E-2
MEAN_MOTION_DOT = .74114E-3
MEAN_MOTION_DDOT = 0

CCSDS_OMM_VERS = 2.0
CREATION_DATE  = 
ORIGINATOR     = 

OBJECT_NAME    = STARLINK-34625
OBJECT_ID      = 2025-240J
CENTER_NAME    = EARTH
REF_FRAME      = TEME
TIME_SYSTEM    = UTC
MEAN_ELEMENT_THEORY = SGP/SGP4

EPOCH          = 2025-11-17T11:06:01.852416
MEAN_MOTION    = 15.49394055
ECCENTRICITY   = .0000298
INCLINATION    = 53.1602
RA_OF_ASC_NODE = 225.6764
ARG_OF_PERICENTER = 189.0946
MEAN_ANOMALY   = 171.0058

EPHEMERIS_TYPE = 0
CLASSIFICATION_TYPE = U
NORAD_CAT_ID   = 66154
ELEMENT_SET_NO = 999
REV_AT_EPOCH   = 483
BSTAR          = .23548E-2
MEAN_MOTION_DOT = .133172E-2
MEAN_MOTION_DDOT = 0

CCSDS_OMM_VERS = 2.0
CREATION_DATE  = 
ORIGINATOR     = 

OBJECT_NAME    = STARLINK-35580
OBJECT_ID      = 2025-240K
CENTER_NAME    = EARTH
REF_FRAME      = TEME
TIME_SYSTEM    = UTC
MEAN_ELEMENT_THEORY = SGP/SGP4

EPOCH          = 2025-11-17T11:05:30.850368
MEAN_MOTION    = 15.49338758
ECCENTRICITY   = .0001424
INCLINATION    = 53.1603
RA_OF_ASC_NODE = 225.6731
ARG_OF_PERICENTER = 95.6136
MEAN_ANOMALY   = 264.5036

EPHEMERIS_TYPE = 0
CLASSIFICATION_TYPE = U
NORAD_CAT_ID   = 66155
ELEMENT_SET_NO = 999
REV_AT_EPOCH   = 478
BSTAR          = .22964E-2
MEAN_MOTION_DOT = .129543E-2
MEAN_MOTION_DDOT = 0

CCSDS_OMM_VERS = 2.0
CREATION_DATE  = 
ORIGINATOR     = 

OBJECT_NAME    = STARLINK-35621
OBJECT_ID      = 2025-240L
CENTER_NAME    = EARTH
REF_FRAME      = TEME
TIME_SYSTEM    = UTC
MEAN_ELEMENT_THEORY = SGP/SGP4

EPOCH          = 2025-11-17T11:05:01.758624
MEAN_MOTION    = 15.49297116
ECCENTRICITY   = .0001331
INCLINATION    = 53.1600
RA_OF_ASC_NODE = 225.6706
ARG_OF_PERICENTER = 98.0189
MEAN_ANOMALY   = 262.0971

EPHEMERIS_TYPE = 0
CLASSIFICATION_TYPE = U
NORAD_CAT_ID   = 66156
ELEMENT_SET_NO = 999
REV_AT_EPOCH   = 478
BSTAR          = .1295E-2
MEAN_MOTION_DOT = .72214E-3
MEAN_MOTION_DDOT = 0

CCSDS_OMM_VERS = 2.0
CREATION_DATE  = 
ORIGINATOR     = 

OBJECT_NAME    = STARLINK-35594
OBJECT_ID      = 2025-240M
CENTER_NAME    = EARTH
REF_FRAME      = TEME
TIME_SYSTEM    = UTC
MEAN_ELEMENT_THEORY = SGP/SGP4

EPOCH          = 2025-11-17T11:04:32.025792
MEAN_MOTION    = 15.49300353
ECCENTRICITY   = .0001893
INCLINATION    = 53.1600
RA_OF_ASC_NODE = 225.6687
ARG_OF_PERICENTER = 81.5262
MEAN_ANOMALY   = 278.5961

EPHEMERIS_TYPE = 0
CLASSIFICATION_TYPE = U
NORAD_CAT_ID   = 66157
ELEMENT_SET_NO = 999
REV_AT_EPOCH   = 478
BSTAR          = .21024E-2
MEAN_MOTION_DOT = .118229E-2
MEAN_MOTION_DDOT = 0

CCSDS_OMM_VERS = 2.0
CREATION_DATE  = 
ORIGINATOR     = 

OBJECT_NAME    = STARLINK-35587
OBJECT_ID      = 2025-240N
CENTER_NAME    = EARTH
REF_FRAME      = TEME
TIME_SYSTEM    = UTC
MEAN_ELEMENT_THEORY = SGP/SGP4

EPOCH          = 2025-11-17T12:00:02.998944
MEAN_MOTION    = 15.40450739
ECCENTRICITY   = .0000943
INCLINATION    = 53.1606
RA_OF_ASC_NODE = 225.5367
ARG_OF_PERICENTER = 78.3054
MEAN_ANOMALY   = 109.7133

EPHEMERIS_TYPE = 0
CLASSIFICATION_TYPE = U
NORAD_CAT_ID   = 66158
ELEMENT_SET_NO = 999
REV_AT_EPOCH   = 484
BSTAR          = -.31382E-1
MEAN_MOTION_DOT = -.1175184E-1
MEAN_MOTION_DDOT = 0

CCSDS_OMM_VERS = 2.0
CREATION_DATE  = 
ORIGINATOR     = 

OBJECT_NAME    = STARLINK-35586
OBJECT_ID      = 2025-240P
CENTER_NAME    = EARTH
REF_FRAME      = TEME
TIME_SYSTEM    = UTC
MEAN_ELEMENT_THEORY = SGP/SGP4

EPOCH          = 2025-11-17T11:03:32.178240
MEAN_MOTION    = 15.49319033
ECCENTRICITY   = .0001254
INCLINATION    = 53.1601
RA_OF_ASC_NODE = 225.6632
ARG_OF_PERICENTER = 99.3984
MEAN_ANOMALY   = 260.7167

EPHEMERIS_TYPE = 0
CLASSIFICATION_TYPE = U
NORAD_CAT_ID   = 66159
ELEMENT_SET_NO = 999
REV_AT_EPOCH   = 478
BSTAR          = .13722E-2
MEAN_MOTION_DOT = .7665E-3
MEAN_MOTION_DDOT = 0

CCSDS_OMM_VERS = 2.0
CREATION_DATE  = 
ORIGINATOR     = 

OBJECT_NAME    = STARLINK-35636
OBJECT_ID      = 2025-240Q
CENTER_NAME    = EARTH
REF_FRAME      = TEME
TIME_SYSTEM    = UTC
MEAN_ELEMENT_THEORY = SGP/SGP4

EPOCH          = 2025-11-17T12:00:02.998944
MEAN_MOTION    = 15.39560192
ECCENTRICITY   = .0001511
INCLINATION    = 53.1608
RA_OF_ASC_NODE = 225.5394
ARG_OF_PERICENTER = 93.1250
MEAN_ANOMALY   = 93.5020

EPHEMERIS_TYPE = 0
CLASSIFICATION_TYPE = U
NORAD_CAT_ID   = 66160
ELEMENT_SET_NO = 999
REV_AT_EPOCH   = 484
BSTAR          = .15203E-2
MEAN_MOTION_DOT = .60777E-3
MEAN_MOTION_DDOT = 0

CCSDS_OMM_VERS = 2.0
CREATION_DATE  = 
ORIGINATOR     = 

OBJECT_NAME    = STARLINK-35635
OBJECT_ID      = 2025-240R
CENTER_NAME    = EARTH
REF_FRAME      = TEME
TIME_SYSTEM    = UTC
MEAN_ELEMENT_THEORY = SGP/SGP4

EPOCH          = 2025-11-17T12:00:02.998944
MEAN_MOTION    = 15.39556579
ECCENTRICITY   = .0001407
INCLINATION    = 53.1606
RA_OF_ASC_NODE = 225.5900
ARG_OF_PERICENTER = 104.1143
MEAN_ANOMALY   = 56.7672

EPHEMERIS_TYPE = 0
CLASSIFICATION_TYPE = U
NORAD_CAT_ID   = 66161
ELEMENT_SET_NO = 999
REV_AT_EPOCH   = 484
BSTAR          = .12671E-2
MEAN_MOTION_DOT = .50513E-3
MEAN_MOTION_DDOT = 0

